GSAT0101 (PRN E11)      
1 37846U 11060A   22267.97141323 -.00000078  00000+0  00000+0 0  9999
2 37846  57.0308  18.6362 0001245  72.6858 287.3354  1.70474994 67917
GSAT0102 (PRN E12)      
1 37847U 11060B   22268.47557781 -.00000077  00000+0  00000+0 0  9994
2 37847  57.0321  18.6221 0001287 318.7633  37.4630  1.70475386 67926
GSAT0103 (PRN E19)      
1 38857U 12055A   22269.18396402  .00000048  00000+0  00000+0 0  9998
2 38857  55.1632 138.9292 0002075 253.2763 106.8175  1.70473768 61964
GSAT0104 (PRN E20)      
1 38858U 12055B   22267.98073998  .00000041  00000+0  00000+0 0  9990
2 38858  55.1630 138.9638 0000613 145.5628 214.5541  1.70474105 61809
GSAT0201 (PRN E18)      
1 40128U 14050A   22267.92417162 -.00000059  00000+0  00000+0 0  9999
2 40128  50.2148 328.3192 1620530 127.6671 248.1809  1.85519235 53067
GSAT0202 (PRN E14)      
1 40129U 14050B   22268.18482443 -.00000057  00000+0  00000+0 0  9991
2 40129  50.2382 327.3722 1617718 128.4874 247.1795  1.85519949 55230
GSAT0203 (PRN E26)      
1 40544U 15017A   22268.33800530 -.00000078  00000+0  00000+0 0  9997
2 40544  56.8262  18.6458 0003478 223.1669 136.8143  1.70476236 46003
GSAT0204 (PRN E22)      
1 40545U 15017B   22268.59094859 -.00000077  00000+0  00000+0 0  9994
2 40545  56.8323  18.6518 0003747 207.4220 152.5673  1.70475800  9059
GSAT0205 (PRN E24)      
1 40889U 15045A   22263.66557116  .00000039  00000+0  00000+0 0  9996
2 40889  55.5662 259.3318 0004062 349.8978  10.1050  1.70473397 43736
GSAT0206 (PRN E30)      
1 40890U 15045B   22267.40583154  .00000035  00000+0  00000+0 0  9991
2 40890  55.5634 259.2243 0003076 322.4630  37.5112  1.70473289 43821
GSAT0209 (PRN E09)      
1 41174U 15079A   22268.16663939  .00000042  00000+0  00000+0 0  9996
2 41174  55.1796 138.6615 0002748 333.6946  26.4055  1.70474157 41572
GSAT0208 (PRN E08)      
1 41175U 15079B   22268.38616364  .00000044  00000+0  00000+0 0  9993
2 41175  55.1775 138.6538 0001787   8.5260 351.5919  1.70473967 41998
GSAT0211 (PRN E02)      
1 41549U 16030A   22266.15859623  .00000038  00000+0  00000+0 0  9999
2 41549  55.7101 259.2020 0004664 306.7931  53.1667  1.70474865 39432
GSAT0210 (PRN E01)      
1 41550U 16030B   22268.21091423  .00000034  00000+0  00000+0 0  9992
2 41550  55.7088 259.1470 0004656 280.7757  79.1629  1.70474790 39460
GSAT0207 (PRN E07)      
1 41859U 16069A   22268.46039758  .00000043  00000+0  00000+0 0  9996
2 41859  54.8408 138.8100 0002682 309.4123  50.6787  1.70472761 36208
GSAT0212 (PRN E03)      
1 41860U 16069B   22268.31381787  .00000042  00000+0  00000+0 0  9993
2 41860  54.8376 138.8114 0001998   6.5440 353.5728  1.70472723 36450
GSAT0213 (PRN E04)      
1 41861U 16069C   22266.91934435  .00000032  00000+0  00000+0 0  9991
2 41861  54.8399 138.8554 0002185 271.3449  88.7373  1.70473007 36295
GSAT0214 (PRN E05)      
1 41862U 16069D   22268.23967933  .00000042  00000+0  00000+0 0  9999
2 41862  54.8386 138.8133 0001349 279.8688  80.2299  1.70472868 36449
GSAT0215 (PRN E21)      
1 43055U 17079A   22268.14283222  .00000034  00000+0  00000+0 0  9990
2 43055  55.6868 258.9784 0004093 277.1074  82.8371  1.70473982 29780
GSAT0216 (PRN E25)      
1 43056U 17079B   22268.43498119  .00000034  00000+0  00000+0 0  9996
2 43056  55.6851 258.9702 0005770 278.7499  81.1741  1.70474111 29771
GSAT0217 (PRN E27)      
1 43057U 17079C   22269.24182484  .00000032  00000+0  00000+0 0  9990
2 43057  55.6834 258.9476 0005262 288.4867  71.4416  1.70474040 29800
GSAT0218 (PRN E31)      
1 43058U 17079D   22268.87528248  .00000033  00000+0  00000+0 0  9992
2 43058  55.6831 258.9551 0006218 275.4190  84.4973  1.70474036 29794
GSAT0221 (PRN E15)      
1 43564U 18060A   22268.18754656 -.00000078  00000+0  00000+0 0  9993
2 43564  57.2081  18.4909 0003180 247.8699 112.1047  1.70476145 25968
GSAT0222 (PRN E33)      
1 43565U 18060B   22268.40741873 -.00000077  00000+0  00000+0 0  9995
2 43565  57.2102  18.4855 0002487 254.6738 105.3075  1.70476169 26010
GSAT0219 (PRN E36)      
1 43566U 18060C   22268.04137546 -.00000078  00000+0  00000+0 0  9993
2 43566  57.2106  18.4974 0002138 251.0010 108.9837  1.70476180 25987
GSAT0220 (PRN E13)      
1 43567U 18060D   22268.84814393 -.00000077  00000+0  00000+0 0  9993
2 43567  57.2106  18.4767 0002618 247.3004 112.6817  1.70475997 25976
GSAT0223                
1 49809U 21116A   22269.29462284 -.00000076  00000+0  00000+0 0  9991
2 49809  57.2029  18.3624 0003494 184.2527 179.8109  1.70476120  4995
GSAT0224                
1 49810U 21116B   22264.70983939 -.00000086  00000+0  00000+0 0  9990
2 49810  57.2029  18.4838 0002930 169.0455  13.7064  1.70476418  4941
